HIMAWARI-8              
1 40267U 14060A   23360.64046242 -.00000266  00000+0  00000+0 0  9995
2 40267   0.0389 232.4753 0001165  55.7818 177.8279  1.00272432 33709
